[{"OBJECT_NAME":"SHIYAN-1 (SY-1)","OBJECT_ID":"2004-012A","EPOCH":"2026-03-09T17:40:34.066560","MEAN_MOTION":15.31043463,"ECCENTRICITY":0.00058726,"INCLINATION":97.8764,"RA_OF_ASC_NODE":140.5238,"ARG_OF_PERICENTER":23.6952,"MEAN_ANOMALY":336.4557,"EPHEMERIS_TYPE":0,"CLASSIFICATION_TYPE":"U","NORAD_CAT_ID":28220,"ELEMENT_SET_NO":999,"REV_AT_EPOCH":19586,"BSTAR":0.00054854449,"MEAN_MOTION_DOT":0.00016393,"MEAN_MOTION_DDOT":0},{"OBJECT_NAME":"STARLINK-30839","OBJECT_ID":"2023-170D","EPOCH":"2026-03-09T09:46:17.730624","MEAN_MOTION":15.26735182,"ECCENTRICITY":0.00033949,"INCLINATION":43.0028,"RA_OF_ASC_NODE":195.1906,"ARG_OF_PERICENTER":147.1104,"MEAN_ANOMALY":212.9959,"EPHEMERIS_TYPE":0,"CLASSIFICATION_TYPE":"U","NORAD_CAT_ID":58209,"ELEMENT_SET_NO":999,"REV_AT_EPOCH":13026,"BSTAR":-3.1104021e-5,"MEAN_MOTION_DOT":-1.095e-5,"MEAN_MOTION_DDOT":0}]
